NOAA 16 DEB             
1 42423U 00055TT  24124.58368019  .00015223  00000+0  55992-2 0  9992
2 42423  98.9412 240.3444 0026960 159.4637 200.7635 14.32508237415872
